[{"OBJECT_NAME":"STARLINK-35692","OBJECT_ID":"2025-263AE","EPOCH":"2026-03-09T03:27:29.670624","MEAN_MOTION":15.27618533,"ECCENTRICITY":9.372e-5,"INCLINATION":43,"RA_OF_ASC_NODE":353.9242,"ARG_OF_PERICENTER":256.6074,"MEAN_ANOMALY":103.4673,"EPHEMERIS_TYPE":0,"CLASSIFICATION_TYPE":"U","NORAD_CAT_ID":66513,"ELEMENT_SET_NO":999,"REV_AT_EPOCH":1881,"BSTAR":0.0010285494,"MEAN_MOTION_DOT":0.00028183,"MEAN_MOTION_DDOT":0},{"OBJECT_NAME":"CZ-4 DEB","OBJECT_ID":"2006-046L","EPOCH":"2026-03-09T05:26:57.251328","MEAN_MOTION":15.20206122,"ECCENTRICITY":0.00567956,"INCLINATION":97.8211,"RA_OF_ASC_NODE":163.0679,"ARG_OF_PERICENTER":229.3561,"MEAN_ANOMALY":130.2727,"EPHEMERIS_TYPE":0,"CLASSIFICATION_TYPE":"U","NORAD_CAT_ID":35378,"ELEMENT_SET_NO":999,"REV_AT_EPOCH":2541,"BSTAR":0.0021311714,"MEAN_MOTION_DOT":0.00048409,"MEAN_MOTION_DDOT":0}]
